CZ-2C R/B               
1 66548U 25266D   25334.12567025  .00013405  00000+0  42226-3 0  9996
2 66548  52.0550  31.3579 0085086 130.0610 230.7878 15.29752281  1686
ELECTRON KICK STAGE R/B 
1 66555U 25267B   25333.15968080  .00023723  00000+0  75919-3 0  9992
2 66555  42.0170 135.3216 0007727 318.0765  41.9480 15.31885694  1329
CZ-3B R/B               
1 66587U 25269B   25327.51390516  .00010320 -91384-6  49597-3 0  9990
2 66587  51.3768 174.0599 7525341 225.2938  41.2116  2.01516013    67
KSLV-II R/B             
1 66663U 25274P   25333.92676375 -.00002936  00000+0 -24363-3 0  9990
2 66663  97.7388 261.3929 0044263   0.9626 359.1673 14.97220610   494
